NAVSTAR 78 (USA 293)    
1 44506U 19056A   24292.61213736 -.00000090  00000+0  00000+0 0  9996
2 44506  55.8300 355.2028 0048134 192.4674 339.0166  2.00556918 37903
NAVSTAR 79 (USA 304)    
1 45854U 20041A   24292.44269869 -.00000057  00000+0  00000+0 0  9991
2 45854  56.2274  52.5934 0048592 194.7902 151.0943  2.00570497 31867
NAVSTAR 80 (USA 309)    
1 46826U 20078A   24292.75132588  .00000002  00000+0  00000+0 0  9991
2 46826  54.1372 235.3891 0050226 198.8273 344.6409  2.00560203 29340
NAVSTAR 81 (USA 319)    
1 48859U 21054A   24292.25736994 -.00000090  00000+0  00000+0 0  9998
2 48859  55.3578 356.8118 0018677 224.7820 144.5990  2.00576713 24587
NAVSTAR 82 (USA 343)    
1 55268U 23009A   24291.93938146  .00000053  00000+0  00000+0 0  9997
2 55268  55.0840 172.3567 0002142  70.5986 113.4369  2.00555748 13068
