{
  "DATA": [
    {
      "OBJECT_NAME": "GPS BIII-2  (PRN 18)",
      "OBJECT_ID": "2019-056A",
      "EPOCH": "2024-10-18T14:41:28.667904",
      "MEAN_MOTION": 2.00556918,
      "ECCENTRICITY": 0.0048134,
      "INCLINATION": 55.83,
      "RA_OF_ASC_NODE": 355.2028,
      "ARG_OF_PERICENTER": 192.4674,
      "MEAN_ANOMALY": 339.0166,
      "EPHEMERIS_TYPE": 0,
      "CLASSIFICATION_TYPE": "U",
      "NORAD_CAT_ID": 44506,
      "ELEMENT_SET_NO": 999,
      "REV_AT_EPOCH": 3790,
      "BSTAR": 0,
      "MEAN_MOTION_DOT": -9e-07,
      "MEAN_MOTION_DDOT": 0
    },
    {
      "OBJECT_NAME": "GPS BIII-3  (PRN 23)",
      "OBJECT_ID": "2020-041A",
      "EPOCH": "2024-10-18T10:37:29.166816",
      "MEAN_MOTION": 2.00570497,
      "ECCENTRICITY": 0.0048592,
      "INCLINATION": 56.2274,
      "RA_OF_ASC_NODE": 52.5934,
      "ARG_OF_PERICENTER": 194.7902,
      "MEAN_ANOMALY": 151.0943,
      "EPHEMERIS_TYPE": 0,
      "CLASSIFICATION_TYPE": "U",
      "NORAD_CAT_ID": 45854,
      "ELEMENT_SET_NO": 999,
      "REV_AT_EPOCH": 3186,
      "BSTAR": 0,
      "MEAN_MOTION_DOT": -5.7e-07,
      "MEAN_MOTION_DDOT": 0
    },
    {
      "OBJECT_NAME": "GPS BIII-4  (PRN 14)",
      "OBJECT_ID": "2020-078A",
      "EPOCH": "2024-10-18T18:01:54.556032",
      "MEAN_MOTION": 2.00560203,
      "ECCENTRICITY": 0.0050226,
      "INCLINATION": 54.1372,
      "RA_OF_ASC_NODE": 235.3891,
      "ARG_OF_PERICENTER": 198.8273,
      "MEAN_ANOMALY": 344.6409,
      "EPHEMERIS_TYPE": 0,
      "CLASSIFICATION_TYPE": "U",
      "NORAD_CAT_ID": 46826,
      "ELEMENT_SET_NO": 999,
      "REV_AT_EPOCH": 2934,
      "BSTAR": 0,
      "MEAN_MOTION_DOT": 2e-08,
      "MEAN_MOTION_DDOT": 0
    },
    {
      "OBJECT_NAME": "GPS BIII-5  (PRN 11)",
      "OBJECT_ID": "2021-054A",
      "EPOCH": "2024-10-18T06:10:36.762816",
      "MEAN_MOTION": 2.00576713,
      "ECCENTRICITY": 0.0018677,
      "INCLINATION": 55.3578,
      "RA_OF_ASC_NODE": 356.8118,
      "ARG_OF_PERICENTER": 224.782,
      "MEAN_ANOMALY": 144.599,
      "EPHEMERIS_TYPE": 0,
      "CLASSIFICATION_TYPE": "U",
      "NORAD_CAT_ID": 48859,
      "ELEMENT_SET_NO": 999,
      "REV_AT_EPOCH": 2458,
      "BSTAR": 0,
      "MEAN_MOTION_DOT": -9e-07,
      "MEAN_MOTION_DDOT": 0
    },
    {
      "OBJECT_NAME": "GPS BIII-6  (PRN 28)",
      "OBJECT_ID": "2023-009A",
      "EPOCH": "2024-10-17T22:32:42.558144",
      "MEAN_MOTION": 2.00555748,
      "ECCENTRICITY": 0.0002142,
      "INCLINATION": 55.084,
      "RA_OF_ASC_NODE": 172.3567,
      "ARG_OF_PERICENTER": 70.5986,
      "MEAN_ANOMALY": 113.4369,
      "EPHEMERIS_TYPE": 0,
      "CLASSIFICATION_TYPE": "U",
      "NORAD_CAT_ID": 55268,
      "ELEMENT_SET_NO": 999,
      "REV_AT_EPOCH": 1306,
      "BSTAR": 0,
      "MEAN_MOTION_DOT": 5.3e-07,
      "MEAN_MOTION_DDOT": 0
    }
  ]
}